{
  "type": "FeatureCollection",
  "features": [
    {
      "type": "Feature",
      "properties": {
        "norad_id": 34350,
        "name": "IRIDIUM 33 DEB",
        "group": "iridium-33-debris",
        "lat": -60.54850010782764,
        "lon": 0.2527277468994596,
        "alt_km": 759.1328410483402,
        "timestamp": "2025-12-03T13:52:09.951384+00:00",
        "meta_object_name": "IRIDIUM 33 DEB",
        "meta_object_id": "1997-051ES",
        "meta_epoch": "2025-12-03T02:46:10.970400",
        "meta_mean_motion": 14.45350997,
        "meta_eccentricity": 0.00218335,
        "meta_inclination": 86.3282,
        "meta_ra_of_asc_node": 6.9833,
        "meta_arg_of_pericenter": 165.5973,
        "meta_mean_anomaly": 248.6185,
        "meta_ephemeris_type": 0,
        "meta_classification_type": "U",
        "meta_norad_cat_id": 34350,
        "meta_element_set_no": 999,
        "meta_rev_at_epoch": 88154,
        "meta_bstar": 0.00041343011,
        "meta_mean_motion_dot": 1.476e-05,
        "meta_mean_motion_ddot": 0,
        "tle_line1": "1 34350U 97051ES  25337.11540475  .00001476  00000+0  41343-3 0  9999",
        "tle_line2": "2 34350  86.3282   6.9833 0021833 165.5973 248.6185 14.45350997881545"
      },
      "geometry": {
        "type": "Point",
        "coordinates": [
          0.2527277468994596,
          -60.54850010782764
        ]
      }
    },
    {
      "type": "Feature",
      "properties": {
        "norad_id": 34366,
        "name": "IRIDIUM 33 DEB",
        "group": "iridium-33-debris",
        "lat": -16.923654643476628,
        "lon": 52.190497652907155,
        "alt_km": 733.2050121272432,
        "timestamp": "2025-12-03T13:52:09.951395+00:00",
        "meta_object_name": "IRIDIUM 33 DEB",
        "meta_object_id": "1997-051FJ",
        "meta_epoch": "2025-12-03T05:56:14.838144",
        "meta_mean_motion": 14.53909493,
        "meta_eccentricity": 0.00217162,
        "meta_inclination": 86.371,
        "meta_ra_of_asc_node": 53.4406,
        "meta_arg_of_pericenter": 170.2088,
        "meta_mean_anomaly": 244.1794,
        "meta_ephemeris_type": 0,
        "meta_classification_type": "U",
        "meta_norad_cat_id": 34366,
        "meta_element_set_no": 999,
        "meta_rev_at_epoch": 88044,
        "meta_bstar": 0.0017347215,
        "meta_mean_motion_dot": 7.341e-05,
        "meta_mean_motion_ddot": 0,
        "tle_line1": "1 34366U 97051FJ  25337.24739396  .00007341  00000+0  17347-2 0  9995",
        "tle_line2": "2 34366  86.3710  53.4406 0021716 170.2088 244.1794 14.53909493880446"
      },
      "geometry": {
        "type": "Point",
        "coordinates": [
          52.190497652907155,
          -16.923654643476628
        ]
      }
    },
    {
      "type": "Feature",
      "properties": {
        "norad_id": 34375,
        "name": "IRIDIUM 33 DEB",
        "group": "iridium-33-debris",
        "lat": 3.6937515906103116,
        "lon": -173.38040666018057,
        "alt_km": 899.6968869778921,
        "timestamp": "2025-12-03T13:52:09.951406+00:00",
        "meta_object_name": "IRIDIUM 33 DEB",
        "meta_object_id": "1997-051FT",
        "meta_epoch": "2025-12-03T01:02:45.120192",
        "meta_mean_motion": 14.17964565,
        "meta_eccentricity": 0.01024686,
        "meta_inclination": 86.4333,
        "meta_ra_of_asc_node": 186.6042,
        "meta_arg_of_pericenter": 157.2608,
        "meta_mean_anomaly": 1.3107,
        "meta_ephemeris_type": 0,
        "meta_classification_type": "U",
        "meta_norad_cat_id": 34375,
        "meta_element_set_no": 999,
        "meta_rev_at_epoch": 86574,
        "meta_bstar": 0.00052219187,
        "meta_mean_motion_dot": 1.144e-05,
        "meta_mean_motion_ddot": 0,
        "tle_line1": "1 34375U 97051FT  25337.04357778  .00001144  00000+0  52219-3 0  9996",
        "tle_line2": "2 34375  86.4333 186.6042 0102468 157.2608   1.3107 14.17964565865748"
      },
      "geometry": {
        "type": "Point",
        "coordinates": [
          -173.38040666018057,
          3.6937515906103116
        ]
      }
    },
    {
      "type": "Feature",
      "properties": {
        "norad_id": 34376,
        "name": "IRIDIUM 33 DEB",
        "group": "iridium-33-debris",
        "lat": -8.402349668924298,
        "lon": 10.110983827892323,
        "alt_km": 706.2225713465323,
        "timestamp": "2025-12-03T13:52:09.951417+00:00",
        "meta_object_name": "IRIDIUM 33 DEB",
        "meta_object_id": "1997-051FU",
        "meta_epoch": "2025-12-03T07:20:20.237856",
        "meta_mean_motion": 14.62343372,
        "meta_eccentricity": 0.00260881,
        "meta_inclination": 86.2996,
        "meta_ra_of_asc_node": 10.7809,
        "meta_arg_of_pericenter": 198.9815,
        "meta_mean_anomaly": 161.0427,
        "meta_ephemeris_type": 0,
        "meta_classification_type": "U",
        "meta_norad_cat_id": 34376,
        "meta_element_set_no": 999,
        "meta_rev_at_epoch": 87869,
        "meta_bstar": 0.0019687734,
        "meta_mean_motion_dot": 0.00010018,
        "meta_mean_motion_ddot": 0,
        "tle_line1": "1 34376U 97051FU  25337.30578979  .00010018  00000+0  19688-2 0  9996",
        "tle_line2": "2 34376  86.2996  10.7809 0026088 198.9815 161.0427 14.62343372878699"
      },
      "geometry": {
        "type": "Point",
        "coordinates": [
          10.110983827892323,
          -8.402349668924298
        ]
      }
    },
    {
      "type": "Feature",
      "properties": {
        "norad_id": 34486,
        "name": "IRIDIUM 33 DEB",
        "group": "iridium-33-debris",
        "lat": -21.21284004123915,
        "lon": -162.34574545415762,
        "alt_km": 582.7325668800077,
        "timestamp": "2025-12-03T13:52:09.951427+00:00",
        "meta_object_name": "IRIDIUM 33 DEB",
        "meta_object_id": "1997-051GB",
        "meta_epoch": "2025-12-03T03:36:18.288288",
        "meta_mean_motion": 14.9509064,
        "meta_eccentricity": 0.00128936,
        "meta_inclination": 86.3946,
        "meta_ra_of_asc_node": 16.449,
        "meta_arg_of_pericenter": 144.2468,
        "meta_mean_anomaly": 276.3626,
        "meta_ephemeris_type": 0,
        "meta_classification_type": "U",
        "meta_norad_cat_id": 34486,
        "meta_element_set_no": 999,
        "meta_rev_at_epoch": 88843,
        "meta_bstar": 0.0028084086,
        "meta_mean_motion_dot": 0.0003094,
        "meta_mean_motion_ddot": 0,
        "tle_line1": "1 34486U 97051GB  25337.15021167  .00030940  00000+0  28084-2 0  9999",
        "tle_line2": "2 34486  86.3946  16.4490 0012893 144.2468 276.3626 14.95090640888430"
      },
      "geometry": {
        "type": "Point",
        "coordinates": [
          -162.34574545415762,
          -21.21284004123915
        ]
      }
    },
    {
      "type": "Feature",
      "properties": {
        "norad_id": 34487,
        "name": "IRIDIUM 33 DEB",
        "group": "iridium-33-debris",
        "lat": 42.13976984720454,
        "lon": -166.99475768485186,
        "alt_km": 723.2209629180488,
        "timestamp": "2025-12-03T13:52:09.951438+00:00",
        "meta_object_name": "IRIDIUM 33 DEB",
        "meta_object_id": "1997-051GC",
        "meta_epoch": "2025-12-03T01:43:00.777792",
        "meta_mean_motion": 14.43195419,
        "meta_eccentricity": 0.00318714,
        "meta_inclination": 86.3443,
        "meta_ra_of_asc_node": 16.5394,
        "meta_arg_of_pericenter": 159.074,
        "meta_mean_anomaly": 229.62,
        "meta_ephemeris_type": 0,
        "meta_classification_type": "U",
        "meta_norad_cat_id": 34487,
        "meta_element_set_no": 999,
        "meta_rev_at_epoch": 88109,
        "meta_bstar": 0.00026232115,
        "meta_mean_motion_dot": 9.07e-06,
        "meta_mean_motion_ddot": 0,
        "tle_line1": "1 34487U 97051GC  25337.07153678  .00000907  00000+0  26232-3 0  9998",
        "tle_line2": "2 34487  86.3443  16.5394 0031871 159.0740 229.6200 14.43195419881098"
      },
      "geometry": {
        "type": "Point",
        "coordinates": [
          -166.99475768485186,
          42.13976984720454
        ]
      }
    },
    {
      "type": "Feature",
      "properties": {
        "norad_id": 34488,
        "name": "IRIDIUM 33 DEB",
        "group": "iridium-33-debris",
        "lat": -20.801772009786777,
        "lon": 131.73959211422977,
        "alt_km": 500.7294658880237,
        "timestamp": "2025-12-03T13:52:09.951448+00:00",
        "meta_object_name": "IRIDIUM 33 DEB",
        "meta_object_id": "1997-051GD",
        "meta_epoch": "2025-12-02T22:49:46.136352",
        "meta_mean_motion": 15.25923999,
        "meta_eccentricity": 0.00156738,
        "meta_inclination": 86.3246,
        "meta_ra_of_asc_node": 310.649,
        "meta_arg_of_pericenter": 66.3953,
        "meta_mean_anomaly": 293.8937,
        "meta_ephemeris_type": 0,
        "meta_classification_type": "U",
        "meta_norad_cat_id": 34488,
        "meta_element_set_no": 999,
        "meta_rev_at_epoch": 89090,
        "meta_bstar": 0.0055589984,
        "meta_mean_motion_dot": 0.0014559,
        "meta_mean_motion_ddot": 0,
        "tle_line1": "1 34488U 97051GD  25336.95122843  .00145590  00000+0  55590-2 0  9991",
        "tle_line2": "2 34488  86.3246 310.6490 0015673  66.3953 293.8937 15.25923999890906"
      },
      "geometry": {
        "type": "Point",
        "coordinates": [
          131.73959211422977,
          -20.801772009786777
        ]
      }
    }
  ]
}